STARLINK-31569          
1 59857U 24097Y   26068.54335778 -.00000486  00000+0 -81529-5 0  9999
2 59857  42.9989 275.2507 0000971 265.8259  94.2482 15.27575028101899
STRIX-4                 
1 60352U 24137A   26068.65404516  .00020530  00000+0  71820-3 0  9996
2 60352  43.0134 129.8162 0016840   5.2738 354.8289 15.29026223 88766
