[{"OBJECT_NAME":"STARLINK-31569","OBJECT_ID":"2024-097Y","EPOCH":"2026-03-09T13:02:26.112192","MEAN_MOTION":15.27575028,"ECCENTRICITY":9.71e-5,"INCLINATION":42.9989,"RA_OF_ASC_NODE":275.2507,"ARG_OF_PERICENTER":265.8259,"MEAN_ANOMALY":94.2482,"EPHEMERIS_TYPE":0,"CLASSIFICATION_TYPE":"U","NORAD_CAT_ID":59857,"ELEMENT_SET_NO":999,"REV_AT_EPOCH":10189,"BSTAR":-8.152921e-6,"MEAN_MOTION_DOT":-4.86e-6,"MEAN_MOTION_DDOT":0},{"OBJECT_NAME":"STRIX-4","OBJECT_ID":"2024-137A","EPOCH":"2026-03-09T15:41:49.501824","MEAN_MOTION":15.29026224,"ECCENTRICITY":0.00168396,"INCLINATION":43.0134,"RA_OF_ASC_NODE":129.8162,"ARG_OF_PERICENTER":5.2738,"MEAN_ANOMALY":354.8289,"EPHEMERIS_TYPE":0,"CLASSIFICATION_TYPE":"U","NORAD_CAT_ID":60352,"ELEMENT_SET_NO":999,"REV_AT_EPOCH":8876,"BSTAR":0.00071819834,"MEAN_MOTION_DOT":0.0002053,"MEAN_MOTION_DDOT":0}]
